{"type": "FeatureCollection", "features": [ {"type": "Feature", "properties": {"norad_id": 39634, "name": "SENTINEL-1A", "group": "resource", "lat": -77.722041856561, "lon": 144.81870655521803, "alt_km": 703.9883201868861, "timestamp": "2025-12-27T03:58:43.835099+00:00", "meta": {"OBJECT_NAME": "SENTINEL-1A", "OBJECT_ID": "2014-016A", "EPOCH": "2025-12-26T21:51:00.395136", "MEAN_MOTION": 14.59199546, "ECCENTRICITY": 0.0001272, "INCLINATION": 98.1806, "RA_OF_ASC_NODE": 5.9421, "ARG_OF_PERICENTER": 85.6073, "MEAN_ANOMALY": 274.5272, "EPHEMERIS_TYPE": 0, "CLASSIFICATION_TYPE": "U", "NORAD_CAT_ID": 39634, "ELEMENT_SET_NO": 999, "REV_AT_EPOCH": 62489, "BSTAR": 7.2862e-06, "MEAN_MOTION_DOT": -1.1e-07, "MEAN_MOTION_DDOT": 0}, "tle": {"line1": "1 39634U 14016A   25360.91042124 -.00000011  00000+0  72862-5 0  9998", "line2": "2 39634  98.1806   5.9421 0001272  85.6073 274.5272 14.59199546624892"}}, "geometry": {"type": "Point", "coordinates": [144.81870655521803, -77.722041856561]}}, {"type": "Feature", "properties": {"norad_id": 39731, "name": "KAZEOSAT 1", "group": "resource", "lat": 65.46918608197333, "lon": 53.99586493438807, "alt_km": 744.4813163985746, "timestamp": "2025-12-27T03:58:43.835109+00:00", "meta": {"OBJECT_NAME": "KAZEOSAT 1", "OBJECT_ID": "2014-024A", "EPOCH": "2025-12-26T19:20:37.674240", "MEAN_MOTION": 14.42070198, "ECCENTRICITY": 0.0001234, "INCLINATION": 98.3412, "RA_OF_ASC_NODE": 72.3965, "ARG_OF_PERICENTER": 95.1458, "MEAN_ANOMALY": 264.9873, "EPHEMERIS_TYPE": 0, "CLASSIFICATION_TYPE": "U", "NORAD_CAT_ID": 39731, "ELEMENT_SET_NO": 999, "REV_AT_EPOCH": 61371, "BSTAR": 7.3231e-05, "MEAN_MOTION_DOT": 1.98e-06, "MEAN_MOTION_DDOT": 0}, "tle": {"line1": "1 39731U 14024A   25360.80599160  .00000198  00000+0  73231-4 0  9995", "line2": "2 39731  98.3412  72.3965 0001234  95.1458 264.9873 14.42070198613719"}}, "geometry": {"type": "Point", "coordinates": [53.99586493438807, 65.46918608197333]}}, {"type": "Feature", "properties": {"norad_id": 39766, "name": "ALOS-2", "group": "resource", "lat": 82.06785073285207, "lon": 3.6806104800951585, "alt_km": 622.560146136715, "timestamp": "2025-12-27T03:58:43.835117+00:00", "meta": {"OBJECT_NAME": "ALOS-2", "OBJECT_ID": "2014-029A", "EPOCH": "2025-12-26T21:04:46.532640", "MEAN_MOTION": 14.79473782, "ECCENTRICITY": 0.0001377, "INCLINATION": 97.9215, "RA_OF_ASC_NODE": 95.5225, "ARG_OF_PERICENTER": 99.181, "MEAN_ANOMALY": 260.9558, "EPHEMERIS_TYPE": 0, "CLASSIFICATION_TYPE": "U", "NORAD_CAT_ID": 39766, "ELEMENT_SET_NO": 999, "REV_AT_EPOCH": 62610, "BSTAR": 0.00017003, "MEAN_MOTION_DOT": 1.219e-05, "MEAN_MOTION_DDOT": 0}, "tle": {"line1": "1 39766U 14029A   25360.87831635  .00001219  00000+0  17003-3 0  9990", "line2": "2 39766  97.9215  95.5225 0001377  99.1810 260.9558 14.79473782626102"}}, "geometry": {"type": "Point", "coordinates": [3.6806104800951585, 82.06785073285207]}}, {"type": "Feature", "properties": {"norad_id": 40010, "name": "KAZEOSAT 2", "group": "resource", "lat": -62.895137452144795, "lon": -140.24735914936653, "alt_km": 624.8122680267415, "timestamp": "2025-12-27T03:58:43.835127+00:00", "meta": {"OBJECT_NAME": "KAZEOSAT 2", "OBJECT_ID": "2014-033A", "EPOCH": "2025-12-26T20:10:54.490080", "MEAN_MOTION": 14.85189928, "ECCENTRICITY": 0.000882, "INCLINATION": 97.5496, "RA_OF_ASC_NODE": 204.4272, "ARG_OF_PERICENTER": 158.7715, "MEAN_ANOMALY": 201.3868, "EPHEMERIS_TYPE": 0, "CLASSIFICATION_TYPE": "U", "NORAD_CAT_ID": 40010, "ELEMENT_SET_NO": 999, "REV_AT_EPOCH": 62337, "BSTAR": 8.4411e-05, "MEAN_MOTION_DOT": 6.73e-06, "MEAN_MOTION_DDOT": 0}, "tle": {"line1": "1 40010U 14033A   25360.84090845  .00000673  00000+0  84411-4 0  9997", "line2": "2 40010  97.5496 204.4272 0008820 158.7715 201.3868 14.85189928623374"}}, "geometry": {"type": "Point", "coordinates": [-140.24735914936653, -62.895137452144795]}}, {"type": "Feature", "properties": {"norad_id": 40011, "name": "HODOYOSHI-4", "group": "resource", "lat": 35.03991229036862, "lon": 14.669028011801677, "alt_km": 586.564901888144, "timestamp": "2025-12-27T03:58:43.835150+00:00", "meta": {"OBJECT_NAME": "HODOYOSHI-4", "OBJECT_ID": "2014-033B", "EPOCH": "2025-12-26T19:15:34.723872", "MEAN_MOTION": 14.87531981, "ECCENTRICITY": 0.0024283, "INCLINATION": 97.5413, "RA_OF_ASC_NODE": 188.9934, "ARG_OF_PERICENTER": 153.9431, "MEAN_ANOMALY": 206.3014, "EPHEMERIS_TYPE": 0, "CLASSIFICATION_TYPE": "U", "NORAD_CAT_ID": 40011, "ELEMENT_SET_NO": 999, "REV_AT_EPOCH": 62317, "BSTAR": 0.0002774, "MEAN_MOTION_DOT": 2.478e-05, "MEAN_MOTION_DDOT": 0}, "tle": {"line1": "1 40011U 14033B   25360.80248523  .00002478  00000+0  27740-3 0  9998", "line2": "2 40011  97.5413 188.9934 0024283 153.9431 206.3014 14.87531981623176"}}, "geometry": {"type": "Point", "coordinates": [14.669028011801677, 35.03991229036862]}}, {"type": "Feature", "properties": {"norad_id": 40013, "name": "DEIMOS-2", "group": "resource", "lat": -46.45240563777038, "lon": 48.41011198677048, "alt_km": 595.7439647133224, "timestamp": "2025-12-27T03:58:43.835160+00:00", "meta": {"OBJECT_NAME": "DEIMOS-2", "OBJECT_ID": "2014-033D", "EPOCH": "2025-12-26T20:31:54.774912", "MEAN_MOTION": 14.93032849, "ECCENTRICITY": 0.000142, "INCLINATION": 97.6049, "RA_OF_ASC_NODE": 236.1903, "ARG_OF_PERICENTER": 110.8809, "MEAN_ANOMALY": 249.2563, "EPHEMERIS_TYPE": 0, "CLASSIFICATION_TYPE": "U", "NORAD_CAT_ID": 40013, "ELEMENT_SET_NO": 999, "REV_AT_EPOCH": 61200, "BSTAR": 0.00029282, "MEAN_MOTION_DOT": 2.992e-05, "MEAN_MOTION_DDOT": 0}, "tle": {"line1": "1 40013U 14033D   25360.85549508  .00002992  00000+0  29282-3 0  9996", "line2": "2 40013  97.6049 236.1903 0001420 110.8809 249.2563 14.93032849612006"}}, "geometry": {"type": "Point", "coordinates": [48.41011198677048, -46.45240563777038]}}, {"type": "Feature", "properties": {"norad_id": 40015, "name": "HODOYOSHI-3", "group": "resource", "lat": -67.18144122865141, "lon": -175.0703015691485, "alt_km": 622.2474342236428, "timestamp": "2025-12-27T03:58:43.835170+00:00", "meta": {"OBJECT_NAME": "HODOYOSHI-3", "OBJECT_ID": "2014-033F", "EPOCH": "2025-12-26T16:57:59.278176", "MEAN_MOTION": 14.84853935, "ECCENTRICITY": 0.0032641, "INCLINATION": 97.6208, "RA_OF_ASC_NODE": 165.9356, "ARG_OF_PERICENTER": 200.5721, "MEAN_ANOMALY": 159.4182, "EPHEMERIS_TYPE": 0, "CLASSIFICATION_TYPE": "U", "NORAD_CAT_ID": 40015, "ELEMENT_SET_NO": 999, "REV_AT_EPOCH": 62202, "BSTAR": 0.00020946, "MEAN_MOTION_DOT": 1.744e-05, "MEAN_MOTION_DDOT": 0}, "tle": {"line1": "1 40015U 14033F   25360.70693609  .00001744  00000+0  20946-3 0  9996", "line2": "2 40015  97.6208 165.9356 0032641 200.5721 159.4182 14.84853935622024"}}, "geometry": {"type": "Point", "coordinates": [-175.0703015691485, -67.18144122865141]}}, {"type": "Feature", "properties": {"norad_id": 40053, "name": "SPOT 7", "group": "resource", "lat": -25.19256092067948, "lon": -120.92863132795851, "alt_km": 696.982770080801, "timestamp": "2025-12-27T03:58:43.835179+00:00", "meta": {"OBJECT_NAME": "SPOT 7", "OBJECT_ID": "2014-034A", "EPOCH": "2025-12-26T20:27:57.259584", "MEAN_MOTION": 14.60751133, "ECCENTRICITY": 0.0001503, "INCLINATION": 98.0883, "RA_OF_ASC_NODE": 62.6013, "ARG_OF_PERICENTER": 80.4362, "MEAN_ANOMALY": 279.7008, "EPHEMERIS_TYPE": 0, "CLASSIFICATION_TYPE": "U", "NORAD_CAT_ID": 40053, "ELEMENT_SET_NO": 999, "REV_AT_EPOCH": 61197, "BSTAR": 0.00011855, "MEAN_MOTION_DOT": 5.33e-06, "MEAN_MOTION_DDOT": 0}, "tle": {"line1": "1 40053U 14034A   25360.85274606  .00000533  00000+0  11855-3 0  9991", "line2": "2 40053  98.0883  62.6013 0001503  80.4362 279.7008 14.60751133611978"}}, "geometry": {"type": "Point", "coordinates": [-120.92863132795851, -25.19256092067948]}}, {"type": "Feature", "properties": {"norad_id": 40072, "name": "SKYSAT-B", "group": "resource", "lat": 77.45888678933312, "lon": -95.76468058865014, "alt_km": 594.6599629496732, "timestamp": "2025-12-27T03:58:43.835188+00:00", "meta": {"OBJECT_NAME": "SKYSAT-B", "OBJECT_ID": "2014-037D", "EPOCH": "2025-12-26T19:32:42.335232", "MEAN_MOTION": 14.87377636, "ECCENTRICITY": 0.0006878, "INCLINATION": 98.363, "RA_OF_ASC_NODE": 305.2652, "ARG_OF_PERICENTER": 111.2738, "MEAN_ANOMALY": 248.9212, "EPHEMERIS_TYPE": 0, "CLASSIFICATION_TYPE": "U", "NORAD_CAT_ID": 40072, "ELEMENT_SET_NO": 999, "REV_AT_EPOCH": 62033, "BSTAR": 0.00022124, "MEAN_MOTION_DOT": 1.939e-05, "MEAN_MOTION_DDOT": 0}, "tle": {"line1": "1 40072U 14037D   25360.81437888  .00001939  00000+0  22124-3 0  9996", "line2": "2 40072  98.3630 305.2652 0006878 111.2738 248.9212 14.87377636620333"}}, "geometry": {"type": "Point", "coordinates": [-95.76468058865014, 77.45888678933312]}}, {"type": "Feature", "properties": {"norad_id": 40115, "name": "WORLDVIEW-3 (WV-3)", "group": "resource", "lat": -27.27889733862137, "lon": -110.82336697982484, "alt_km": 620.1763558138764, "timestamp": "2025-12-27T03:58:43.835198+00:00", "meta": {"OBJECT_NAME": "WORLDVIEW-3 (WV-3)", "OBJECT_ID": "2014-048A", "EPOCH": "2025-12-26T18:57:36.035424", "MEAN_MOTION": 14.84679755, "ECCENTRICITY": 0.0002103, "INCLINATION": 97.8763, "RA_OF_ASC_NODE": 72.899, "ARG_OF_PERICENTER": 126.8671, "MEAN_ANOMALY": 233.2737, "EPHEMERIS_TYPE": 0, "CLASSIFICATION_TYPE": "U", "NORAD_CAT_ID": 40115, "ELEMENT_SET_NO": 999, "REV_AT_EPOCH": 61632, "BSTAR": 0.00014299, "MEAN_MOTION_DOT": 1.157e-05, "MEAN_MOTION_DDOT": 0}, "tle": {"line1": "1 40115U 14048A   25360.79000041  .00001157  00000+0  14299-3 0  9996", "line2": "2 40115  97.8763  72.8990 0002103 126.8671 233.2737 14.84679755616326"}}, "geometry": {"type": "Point", "coordinates": [-110.82336697982484, -27.27889733862137]}}]}